{
  "links" : {
    "next" : "https://api.nasa.gov/neo/rest/v1/feed?start_date=2012-04-09&end_date=2012-04-09&detailed=true&api_key=t0TVs3DtDT2H8Oy2Zy8m2eVrNsAVKAexjcZXUckd",
    "prev" : "https://api.nasa.gov/neo/rest/v1/feed?start_date=2012-04-07&end_date=2012-04-07&detailed=true&api_key=t0TVs3DtDT2H8Oy2Zy8m2eVrNsAVKAexjcZXUckd",
    "self" : "https://api.nasa.gov/neo/rest/v1/feed?start_date=2012-04-08&end_date=2012-04-08&detailed=true&api_key=t0TVs3DtDT2H8Oy2Zy8m2eVrNsAVKAexjcZXUckd"
  },
  "element_count" : 6,
  "near_earth_objects" : {
    "2012-04-08" : [ {
      "links" : {
        "self" : "https://api.nasa.gov/neo/rest/v1/neo/3729277?api_key=t0TVs3DtDT2H8Oy2Zy8m2eVrNsAVKAexjcZXUckd"
      },
      "neo_reference_id" : "3729277",
      "name" : "(2015 TA25)",
      "nasa_jpl_url" : "http://ssd.jpl.nasa.gov/sbdb.cgi?sstr=3729277",
      "absolute_magnitude_h" : 20.0,
      "estimated_diameter" : {
        "kilometers" : {
          "estimated_diameter_min" : 0.2658,
          "estimated_diameter_max" : 0.5943468684
        },
        "meters" : {
          "estimated_diameter_min" : 265.8,
          "estimated_diameter_max" : 594.3468684194
        },
        "miles" : {
          "estimated_diameter_min" : 0.1651604118,
          "estimated_diameter_max" : 0.369309908
        },
        "feet" : {
          "estimated_diameter_min" : 872.047272,
          "estimated_diameter_max" : 1949.9569797852
        }
      },
      "is_potentially_hazardous_asteroid" : false,
      "close_approach_data" : [ {
        "close_approach_date" : "2012-04-08",
        "epoch_date_close_approach" : 1333868400000,
        "relative_velocity" : {
          "kilometers_per_second" : "18.8971365136",
          "kilometers_per_hour" : "68029.691448852",
          "miles_per_hour" : "42271.0046672047"
        },
        "miss_distance" : {
          "astronomical" : "0.3094099476",
          "lunar" : "120.3604660034",
          "kilometers" : "46287068",
          "miles" : "28761452"
        },
        "orbiting_body" : "Earth"
      } ],
      "orbital_data" : {
        "orbit_id" : "55",
        "orbit_determination_date" : "2017-04-06 08:31:32",
        "orbit_uncertainty" : "3",
        "minimum_orbit_intersection" : ".14384",
        "jupiter_tisserand_invariant" : "5.093",
        "epoch_osculation" : "2458000.5",
        "eccentricity" : ".3837736184494657",
        "semi_major_axis" : "1.198806780961822",
        "inclination" : "31.8614192398686",
        "ascending_node_longitude" : "38.36888240960673",
        "orbital_period" : "479.4266958416839",
        "perihelion_distance" : ".7387363648103472",
        "perihelion_argument" : "122.5844362952059",
        "aphelion_distance" : "1.658877197113296",
        "perihelion_time" : "2457912.005796131235",
        "mean_anomaly" : "66.45001971954349",
        "mean_motion" : ".7508968589410363",
        "equinox" : "J2000"
      }
    }, {
      "links" : {
        "self" : "https://api.nasa.gov/neo/rest/v1/neo/3694130?api_key=t0TVs3DtDT2H8Oy2Zy8m2eVrNsAVKAexjcZXUckd"
      },
      "neo_reference_id" : "3694130",
      "name" : "(2014 UX34)",
      "nasa_jpl_url" : "http://ssd.jpl.nasa.gov/sbdb.cgi?sstr=3694130",
      "absolute_magnitude_h" : 22.2,
      "estimated_diameter" : {
        "kilometers" : {
          "estimated_diameter_min" : 0.096506147,
          "estimated_diameter_max" : 0.2157943048
        },
        "meters" : {
          "estimated_diameter_min" : 96.5061469579,
          "estimated_diameter_max" : 215.7943048444
        },
        "miles" : {
          "estimated_diameter_min" : 0.059966121,
          "estimated_diameter_max" : 0.134088323
        },
        "feet" : {
          "estimated_diameter_min" : 316.6212271853,
          "estimated_diameter_max" : 707.9865871058
        }
      },
      "is_potentially_hazardous_asteroid" : false,
      "close_approach_data" : [ {
        "close_approach_date" : "2012-04-08",
        "epoch_date_close_approach" : 1333868400000,
        "relative_velocity" : {
          "kilometers_per_second" : "29.681975101",
          "kilometers_per_hour" : "106855.1103635676",
          "miles_per_hour" : "66395.6101034068"
        },
        "miss_distance" : {
          "astronomical" : "0.1529035443",
          "lunar" : "59.4794769287",
          "kilometers" : "22874044",
          "miles" : "14213272"
        },
        "orbiting_body" : "Earth"
      } ],
      "orbital_data" : {
        "orbit_id" : "13",
        "orbit_determination_date" : "2017-04-06 08:37:59",
        "orbit_uncertainty" : "6",
        "minimum_orbit_intersection" : ".00288912",
        "jupiter_tisserand_invariant" : "3.757",
        "epoch_osculation" : "2458000.5",
        "eccentricity" : ".6482865730686355",
        "semi_major_axis" : "1.722209142914364",
        "inclination" : "32.9466077330544",
        "ascending_node_longitude" : "206.1479858489916",
        "orbital_period" : "825.519359741921",
        "perihelion_distance" : ".605724079546939",
        "perihelion_argument" : "89.84941517852722",
        "aphelion_distance" : "2.838694206281788",
        "perihelion_time" : "2457725.159717343796",
        "mean_anomaly" : "120.0728978509019",
        "mean_motion" : ".4360891065141652",
        "equinox" : "J2000"
      }
    }, {
      "links" : {
        "self" : "https://api.nasa.gov/neo/rest/v1/neo/3776268?api_key=t0TVs3DtDT2H8Oy2Zy8m2eVrNsAVKAexjcZXUckd"
      },
      "neo_reference_id" : "3776268",
      "name" : "(2017 MJ8)",
      "nasa_jpl_url" : "http://ssd.jpl.nasa.gov/sbdb.cgi?sstr=3776268",
      "absolute_magnitude_h" : 20.594,
      "estimated_diameter" : {
        "kilometers" : {
          "estimated_diameter_min" : 0.2021878139,
          "estimated_diameter_max" : 0.4521056961
        },
        "meters" : {
          "estimated_diameter_min" : 202.1878139037,
          "estimated_diameter_max" : 452.1056961107
        },
        "miles" : {
          "estimated_diameter_min" : 0.1256336441,
          "estimated_diameter_max" : 0.2809253685
        },
        "feet" : {
          "estimated_diameter_min" : 663.3458673677,
          "estimated_diameter_max" : 1483.2864520277
        }
      },
      "is_potentially_hazardous_asteroid" : false,
      "close_approach_data" : [ {
        "close_approach_date" : "2012-04-08",
        "epoch_date_close_approach" : 1333868400000,
        "relative_velocity" : {
          "kilometers_per_second" : "17.5999123388",
          "kilometers_per_hour" : "63359.6844197412",
          "miles_per_hour" : "39369.2439106997"
        },
        "miss_distance" : {
          "astronomical" : "0.379659104",
          "lunar" : "147.6873931885",
          "kilometers" : "56796196",
          "miles" : "35291520"
        },
        "orbiting_body" : "Earth"
      } ],
      "orbital_data" : {
        "orbit_id" : "3",
        "orbit_determination_date" : "2017-07-19 06:20:04",
        "orbit_uncertainty" : "6",
        "minimum_orbit_intersection" : ".130763",
        "jupiter_tisserand_invariant" : "4.512",
        "epoch_osculation" : "2458000.5",
        "eccentricity" : ".6025113955231667",
        "semi_major_axis" : "1.408801798714971",
        "inclination" : "9.862550036458829",
        "ascending_node_longitude" : "8.208306773813042",
        "orbital_period" : "610.7637782832081",
        "perihelion_distance" : ".5599826609556666",
        "perihelion_argument" : "149.541683177421",
        "aphelion_distance" : "2.257620936474276",
        "perihelion_time" : "2457838.863566616658",
        "mean_anomaly" : "95.27270294510031",
        "mean_motion" : ".5894259168608879",
        "equinox" : "J2000"
      }
    } ]
  }
}